start=new Date('2021-08-29T00:00:00.000Z').valueOf();
sats=[{"MEAN_ANOMALY":"282.1256","TLE_LINE2":"2 47808  53.0554 110.8836 0002331  77.9995 282.1256 15.06392486 27451","PERIOD":"95.593","RCS_SIZE":"LARGE","FILE":"3104555","ELEMENT_SET_NO":"999","MEAN_MOTION_DOT":"-0.00000230","BSTAR":"0.00000351500000","MEAN_MOTION_DDOT":"0.0000000000000","ECCENTRICITY":"0.00023310","MEAN_MOTION":"15.06392486","EPOCH":"2021-08-28T20:56:50.065152","EPHEMERIS_TYPE":"0","APOAPSIS":"548.851","TIME_SYSTEM":"UTC","DECAY_DATE":null,"LAUNCH_DATE":"2021-03-11","ARG_OF_PERICENTER":"77.9995","NORAD_CAT_ID":"47808","RA_OF_ASC_NODE":"110.8836","SEMIMAJOR_AXIS":"6925.372","COUNTRY_CODE":"US","OBJECT_NAME":"STARLINK-2389","REV_AT_EPOCH":"2745","CENTER_NAME":"EARTH","GP_ID":"183638905","CLASSIFICATION_TYPE":"U","OBJECT_TYPE":"PAYLOAD","PERIAPSIS":"545.622","TLE_LINE1":"1 47808U 21018X   21240.87280168 -.00000230  00000-0  35150-5 0  9993","SITE":"AFETR","INCLINATION":"53.0554","OBJECT_ID":"2021-018X","MEAN_ELEMENT_THEORY":"SGP4","REF_FRAME":"TEME"},{"NORAD_CAT_ID":"47809","LAUNCH_DATE":"2021-03-11","ARG_OF_PERICENTER":"73.3451","EPOCH":"2021-08-28T21:05:28.562784","MEAN_MOTION":"15.06406299","DECAY_DATE":null,"TIME_SYSTEM":"UTC","APOAPSIS":"548.612","EPHEMERIS_TYPE":"0","BSTAR":"0.00014560000000","ECCENTRICITY":"0.00020470","MEAN_MOTION_DDOT":"0.0000000000000","ELEMENT_SET_NO":"999","MEAN_MOTION_DOT":"0.00001888","RCS_SIZE":"LARGE","PERIOD":"95.592","FILE":"3104555","TLE_LINE2":"2 47809  53.0549 115.8521 0002047  73.3451 286.7763 15.06406299 27386","MEAN_ANOMALY":"286.7763","REF_FRAME":"TEME","OBJECT_ID":"2021-018Y","MEAN_ELEMENT_THEORY":"SGP4","TLE_LINE1":"1 47809U 21018Y   21240.87880281  .00001888  00000-0  14560-3 0  9995","SITE":"AFETR","PERIAPSIS":"545.777","INCLINATION":"53.0549","OBJECT_TYPE":"PAYLOAD","GP_ID":"183638157","CLASSIFICATION_TYPE":"U","CENTER_NAME":"EARTH","REV_AT_EPOCH":"2738","OBJECT_NAME":"STARLINK-2390","SEMIMAJOR_AXIS":"6925.329","COUNTRY_CODE":"US","RA_OF_ASC_NODE":"115.8521"},{"MEAN_MOTION_DDOT":"0.0000000000000","ECCENTRICITY":"0.00018470","BSTAR":"-0.00014945000000","APOAPSIS":"548.478","EPHEMERIS_TYPE":"0","TIME_SYSTEM":"UTC","DECAY_DATE":null,"MEAN_MOTION":"15.06404710","EPOCH":"2021-08-28T21:41:18.145536","ARG_OF_PERICENTER":"53.4168","LAUNCH_DATE":"2021-03-11","NORAD_CAT_ID":"47810","MEAN_ANOMALY":"306.6991","TLE_LINE2":"2 47810  53.0562 125.7569 0001847  53.4168 306.6991 15.06404710 27242","FILE":"3104555","RCS_SIZE":"LARGE","PERIOD":"95.592","MEAN_MOTION_DOT":"-0.00002507","ELEMENT_SET_NO":"999","OBJECT_TYPE":"PAYLOAD","INCLINATION":"53.0562","PERIAPSIS":"545.920","SITE":"AFETR","TLE_LINE1":"1 47810U 21018Z   21240.90368224 -.00002507  00000-0 -14945-3 0  9997","MEAN_ELEMENT_THEORY":"SGP4","OBJECT_ID":"2021-018Z","REF_FRAME":"TEME","RA_OF_ASC_NODE":"125.7569","COUNTRY_CODE":"US","SEMIMAJOR_AXIS":"6925.334","REV_AT_EPOCH":"2724","CENTER_NAME":"EARTH","OBJECT_NAME":"STARLINK-2391","GP_ID":"183637908","CLASSIFICATION_TYPE":"U"},{"NORAD_CAT_ID":"47811","LAUNCH_DATE":"2021-03-11","ARG_OF_PERICENTER":"85.7814","MEAN_MOTION":"15.06404918","EPOCH":"2021-08-28T21:02:50.373024","EPHEMERIS_TYPE":"0","APOAPSIS":"548.871","TIME_SYSTEM":"UTC","DECAY_DATE":null,"BSTAR":"0.00011515000000","ECCENTRICITY":"0.00024150","MEAN_MOTION_DDOT":"0.0000000000000","ELEMENT_SET_NO":"999","MEAN_MOTION_DOT":"0.00001434","PERIOD":"95.592","RCS_SIZE":"LARGE","FILE":"3104555","TLE_LINE2":"2 47811  53.0558  95.8575 0002415  85.7814 274.3451 15.06404918 27668","MEAN_ANOMALY":"274.3451","REF_FRAME":"TEME","OBJECT_ID":"2021-018AA","MEAN_ELEMENT_THEORY":"SGP4","PERIAPSIS":"545.526","SITE":"AFETR","TLE_LINE1":"1 47811U 21018AA  21240.87697191  .00001434  00000-0  11515-3 0  9998","INCLINATION":"53.0558","OBJECT_TYPE":"PAYLOAD","CLASSIFICATION_TYPE":"U","GP_ID":"183638656","CENTER_NAME":"EARTH","REV_AT_EPOCH":"2766","OBJECT_NAME":"STARLINK-2392","SEMIMAJOR_AXIS":"6925.333","COUNTRY_CODE":"US","RA_OF_ASC_NODE":"95.8575"},{"OBJECT_TYPE":"PAYLOAD","TLE_LINE1":"1 47812U 21018AB  21240.84839107  .00001597  00000-0  12604-3 0  9991","SITE":"AFETR","PERIAPSIS":"545.936","INCLINATION":"53.0540","OBJECT_ID":"2021-018AB","MEAN_ELEMENT_THEORY":"SGP4","REF_FRAME":"TEME","RA_OF_ASC_NODE":"125.9912","COUNTRY_CODE":"US","SEMIMAJOR_AXIS":"6925.323","REV_AT_EPOCH":"2717","CENTER_NAME":"EARTH","OBJECT_NAME":"STARLINK-2393","CLASSIFICATION_TYPE":"U","GP_ID":"183639405","BSTAR":"0.00012604000000","ECCENTRICITY":"0.00018070","MEAN_MOTION_DDOT":"0.0000000000000","EPOCH":"2021-08-28T20:21:40.988448","MEAN_MOTION":"15.06408412","DECAY_DATE":null,"APOAPSIS":"548.439","TIME_SYSTEM":"UTC","EPHEMERIS_TYPE":"0","LAUNCH_DATE":"2021-03-11","ARG_OF_PERICENTER":"81.2054","NORAD_CAT_ID":"47812","MEAN_ANOMALY":"278.9140","TLE_LINE2":"2 47812  53.0540 125.9912 0001807  81.2054 278.9140 15.06408412 27175","RCS_SIZE":"LARGE","PERIOD":"95.592","FILE":"3104555","ELEMENT_SET_NO":"999","MEAN_MOTION_DOT":"0.00001597"},{"NORAD_CAT_ID":"47813","LAUNCH_DATE":"2021-03-11","ARG_OF_PERICENTER":"96.2262","EPOCH":"2021-08-28T21:34:40.735776","MEAN_MOTION":"15.06407386","DECAY_DATE":null,"APOAPSIS":"548.950","EPHEMERIS_TYPE":"0","TIME_SYSTEM":"UTC","BSTAR":"0.00002419000000","MEAN_MOTION_DDOT":"0.0000000000000","ECCENTRICITY":"0.00025400","ELEMENT_SET_NO":"999","MEAN_MOTION_DOT":"0.00000078","RCS_SIZE":"LARGE","PERIOD":"95.592","FILE":"3104555","TLE_LINE2":"2 47813  53.0563  95.7617 0002540  96.2262 263.9017 15.06407386 27669","MEAN_ANOMALY":"263.9017","REF_FRAME":"TEME","OBJECT_ID":"2021-018AC","MEAN_ELEMENT_THEORY":"SGP4","SITE":"AFETR","TLE_LINE1":"1 47813U 21018AC  21240.89908259  .00000078  00000-0  24190-4 0  9999","PERIAPSIS":"545.432","INCLINATION":"53.0563","OBJECT_TYPE":"PAYLOAD","GP_ID":"183637658","CLASSIFICATION_TYPE":"U","REV_AT_EPOCH":"2766","OBJECT_NAME":"STARLINK-2394","CENTER_NAME":"EARTH","COUNTRY_CODE":"US","SEMIMAJOR_AXIS":"6925.326","RA_OF_ASC_NODE":"95.7617"},{"RA_OF_ASC_NODE":"115.6622","SEMIMAJOR_AXIS":"6925.297","COUNTRY_CODE":"US","OBJECT_NAME":"STARLINK-2395","REV_AT_EPOCH":"2739","CENTER_NAME":"EARTH","CLASSIFICATION_TYPE":"U","GP_ID":"183638408","OBJECT_TYPE":"PAYLOAD","PERIAPSIS":"545.797","TLE_LINE1":"1 47814U 21018AD  21240.92303400  .00002691  00000-0  19941-3 0  9991","SITE":"AFETR","INCLINATION":"53.0585","OBJECT_ID":"2021-018AD","MEAN_ELEMENT_THEORY":"SGP4","REF_FRAME":"TEME","MEAN_ANOMALY":"289.6020","TLE_LINE2":"2 47814  53.0585 115.6622 0001971  70.5182 289.6020 15.06416794 27397","PERIOD":"95.591","RCS_SIZE":"LARGE","FILE":"3104555","ELEMENT_SET_NO":"999","MEAN_MOTION_DOT":"0.00002691","BSTAR":"0.00019941000000","ECCENTRICITY":"0.00019710","MEAN_MOTION_DDOT":"0.0000000000000","MEAN_MOTION":"15.06416794","EPOCH":"2021-08-28T22:09:10.137600","TIME_SYSTEM":"UTC","APOAPSIS":"548.527","EPHEMERIS_TYPE":"0","DECAY_DATE":null,"LAUNCH_DATE":"2021-03-11","ARG_OF_PERICENTER":"70.5182","NORAD_CAT_ID":"47814"},{"NORAD_CAT_ID":"47815","ARG_OF_PERICENTER":"66.7891","LAUNCH_DATE":"2021-03-11","DECAY_DATE":null,"APOAPSIS":"548.710","TIME_SYSTEM":"UTC","EPHEMERIS_TYPE":"0","EPOCH":"2021-08-28T21:19:25.829760","MEAN_MOTION":"15.06394210","MEAN_MOTION_DDOT":"0.0000000000000","ECCENTRICITY":"0.00021350","BSTAR":"-0.00001213000000","MEAN_MOTION_DOT":"-0.00000462","ELEMENT_SET_NO":"999","FILE":"3104555","RCS_SIZE":"LARGE","PERIOD":"95.593","TLE_LINE2":"2 47815  53.0558 110.8168 0002135  66.7891 293.3323 15.06394210 27393","MEAN_ANOMALY":"293.3323","REF_FRAME":"TEME","MEAN_ELEMENT_THEORY":"SGP4","OBJECT_ID":"2021-018AE","INCLINATION":"53.0558","TLE_LINE1":"1 47815U 21018AE  21240.88849340 -.00000462  00000-0 -12130-4 0  9995","SITE":"AFETR","PERIAPSIS":"545.753","OBJECT_TYPE":"PAYLOAD","GP_ID":"183639156","CLASSIFICATION_TYPE":"U","CENTER_NAME":"EARTH","REV_AT_EPOCH":"2739","OBJECT_NAME":"STARLINK-2396","COUNTRY_CODE":"US","SEMIMAJOR_AXIS":"6925.366","RA_OF_ASC_NODE":"110.8168"},{"INCLINATION":"53.0552","PERIAPSIS":"545.752","TLE_LINE1":"1 47816U 21018AF  21240.89724518  .00000163  00000-0  29880-4 0  9992","SITE":"AFETR","OBJECT_TYPE":"PAYLOAD","REF_FRAME":"TEME","MEAN_ELEMENT_THEORY":"SGP4","OBJECT_ID":"2021-018AF","COUNTRY_CODE":"US","SEMIMAJOR_AXIS":"6925.342","RA_OF_ASC_NODE":"115.7734","GP_ID":"183638906","CLASSIFICATION_TYPE":"U","CENTER_NAME":"EARTH","REV_AT_EPOCH":"2732","OBJECT_NAME":"STARLINK-2399","EPHEMERIS_TYPE":"0","APOAPSIS":"548.662","TIME_SYSTEM":"UTC","DECAY_DATE":null,"MEAN_MOTION":"15.06402219","EPOCH":"2021-08-28T21:32:01.983552","ECCENTRICITY":"0.00021010","MEAN_MOTION_DDOT":"0.0000000000000","BSTAR":"0.00002988000000","NORAD_CAT_ID":"47816","ARG_OF_PERICENTER":"71.6998","LAUNCH_DATE":"2021-03-11","TLE_LINE2":"2 47816  53.0552 115.7734 0002101  71.6998 288.4219 15.06402219 27328","MEAN_ANOMALY":"288.4219","MEAN_MOTION_DOT":"0.00000163","ELEMENT_SET_NO":"999","FILE":"3104555","PERIOD":"95.592","RCS_SIZE":"LARGE"},{"NORAD_CAT_ID":"47817","LAUNCH_DATE":"2021-03-11","ARG_OF_PERICENTER":"70.4211","EPOCH":"2021-08-28T21:58:33.799008","MEAN_MOTION":"15.06402619","DECAY_DATE":null,"APOAPSIS":"548.796","EPHEMERIS_TYPE":"0","TIME_SYSTEM":"UTC","BSTAR":"0.00005964000000","MEAN_MOTION_DDOT":"0.0000000000000","ECCENTRICITY":"0.00022960","ELEMENT_SET_NO":"999","MEAN_MOTION_DOT":"0.00000607","RCS_SIZE":"LARGE","PERIOD":"95.592","FILE":"3104555","TLE_LINE2":"2 47817  53.0543 115.6919 0002296  70.4211 289.7026 15.06402619 27327","MEAN_ANOMALY":"289.7026","REF_FRAME":"TEME","OBJECT_ID":"2021-018AG","MEAN_ELEMENT_THEORY":"SGP4","SITE":"AFETR","TLE_LINE1":"1 47817U 21018AG  21240.91566897  .00000607  00000-0  59640-4 0  9990","PERIAPSIS":"545.615","INCLINATION":"53.0543","OBJECT_TYPE":"PAYLOAD","GP_ID":"183638158","CLASSIFICATION_TYPE":"U","OBJECT_NAME":"STARLINK-2400","REV_AT_EPOCH":"2732","CENTER_NAME":"EARTH","COUNTRY_CODE":"US","SEMIMAJOR_AXIS":"6925.341","RA_OF_ASC_NODE":"115.6919"}];
